[{"OBJECT_NAME":"CENTISPACE-1 OBJECT G","OBJECT_ID":"2026-060G","EPOCH":"2026-04-01T20:49:23.719296","MEAN_MOTION":14.75311209,"ECCENTRICITY":0.0014071,"INCLINATION":54.988,"RA_OF_ASC_NODE":347.0457,"ARG_OF_PERICENTER":325.3041,"MEAN_ANOMALY":34.704,"EPHEMERIS_TYPE":0,"CLASSIFICATION_TYPE":"U","NORAD_CAT_ID":68356,"ELEMENT_SET_NO":999,"REV_AT_EPOCH":151,"BSTAR":3.8819e-5,"MEAN_MOTION_DOT":5.5e-7,"MEAN_MOTION_DDOT":0},{"OBJECT_NAME":"CENTISPACE-1 OBJECT H","OBJECT_ID":"2026-060H","EPOCH":"2026-03-31T12:17:09.150144","MEAN_MOTION":14.75426695,"ECCENTRICITY":0.0014896,"INCLINATION":54.9825,"RA_OF_ASC_NODE":352.5691,"ARG_OF_PERICENTER":321.7973,"MEAN_ANOMALY":38.197,"EPHEMERIS_TYPE":0,"CLASSIFICATION_TYPE":"U","NORAD_CAT_ID":68357,"ELEMENT_SET_NO":999,"REV_AT_EPOCH":131,"BSTAR":0.00033642377,"MEAN_MOTION_DOT":2.097e-5,"MEAN_MOTION_DDOT":0},{"OBJECT_NAME":"CENTISPACE-1 OBJECT J","OBJECT_ID":"2026-060J","EPOCH":"2026-03-31T22:02:32.676000","MEAN_MOTION":14.75410591,"ECCENTRICITY":0.00147259,"INCLINATION":54.9876,"RA_OF_ASC_NODE":350.9118,"ARG_OF_PERICENTER":324.9275,"MEAN_ANOMALY":35.0754,"EPHEMERIS_TYPE":0,"CLASSIFICATION_TYPE":"U","NORAD_CAT_ID":68358,"ELEMENT_SET_NO":999,"REV_AT_EPOCH":137,"BSTAR":4.4082868e-5,"MEAN_MOTION_DOT":9.1e-7,"MEAN_MOTION_DDOT":0},{"OBJECT_NAME":"CENTISPACE-1 OBJECT K","OBJECT_ID":"2026-060K","EPOCH":"2026-04-01T17:32:29.893920","MEAN_MOTION":14.75493203,"ECCENTRICITY":0.0015116,"INCLINATION":54.9775,"RA_OF_ASC_NODE":347.5897,"ARG_OF_PERICENTER":326.6312,"MEAN_ANOMALY":33.3734,"EPHEMERIS_TYPE":0,"CLASSIFICATION_TYPE":"U","NORAD_CAT_ID":68359,"ELEMENT_SET_NO":999,"REV_AT_EPOCH":149,"BSTAR":3.7853e-5,"MEAN_MOTION_DOT":4.9e-7,"MEAN_MOTION_DDOT":0},{"OBJECT_NAME":"RASSVET-3 1","OBJECT_ID":"2026-061A","EPOCH":"2026-03-31T15:46:09.658272","MEAN_MOTION":15.89002217,"ECCENTRICITY":0.0026761,"INCLINATION":82.2962,"RA_OF_ASC_NODE":99.7107,"ARG_OF_PERICENTER":45.1037,"MEAN_ANOMALY":315.24,"EPHEMERIS_TYPE":0,"CLASSIFICATION_TYPE":"U","NORAD_CAT_ID":68360,"ELEMENT_SET_NO":999,"REV_AT_EPOCH":126,"BSTAR":0.00043734,"MEAN_MOTION_DOT":0.00127932,"MEAN_MOTION_DDOT":4.5424e-6},{"OBJECT_NAME":"RASSVET-3 2","OBJECT_ID":"2026-061B","EPOCH":"2026-03-31T15:47:00.561696","MEAN_MOTION":15.88526069,"ECCENTRICITY":0.0027321,"INCLINATION":82.2971,"RA_OF_ASC_NODE":99.7121,"ARG_OF_PERICENTER":44.8164,"MEAN_ANOMALY":315.5307,"EPHEMERIS_TYPE":0,"CLASSIFICATION_TYPE":"U","NORAD_CAT_ID":68361,"ELEMENT_SET_NO":999,"REV_AT_EPOCH":126,"BSTAR":0.00023031,"MEAN_MOTION_DOT":0.00066037,"MEAN_MOTION_DDOT":3.6253e-7},{"OBJECT_NAME":"RASSVET-3 3","OBJECT_ID":"2026-061C","EPOCH":"2026-03-31T15:46:50.210112","MEAN_MOTION":15.88549972,"ECCENTRICITY":0.0027163,"INCLINATION":82.297,"RA_OF_ASC_NODE":99.7116,"ARG_OF_PERICENTER":44.7138,"MEAN_ANOMALY":315.6316,"EPHEMERIS_TYPE":0,"CLASSIFICATION_TYPE":"U","NORAD_CAT_ID":68362,"ELEMENT_SET_NO":999,"REV_AT_EPOCH":126,"BSTAR":0.00021986,"MEAN_MOTION_DOT":0.00063107,"MEAN_MOTION_DDOT":2.3369e-7},{"OBJECT_NAME":"RASSVET-3 4","OBJECT_ID":"2026-061D","EPOCH":"2026-03-31T15:46:40.237824","MEAN_MOTION":15.88567095,"ECCENTRICITY":0.002719,"INCLINATION":82.2971,"RA_OF_ASC_NODE":99.7117,"ARG_OF_PERICENTER":44.5884,"MEAN_ANOMALY":315.7567,"EPHEMERIS_TYPE":0,"CLASSIFICATION_TYPE":"U","NORAD_CAT_ID":68363,"ELEMENT_SET_NO":999,"REV_AT_EPOCH":126,"BSTAR":0.00021556,"MEAN_MOTION_DOT":0.00061936,"MEAN_MOTION_DDOT":1.8393e-7},{"OBJECT_NAME":"RASSVET-3 5","OBJECT_ID":"2026-061E","EPOCH":"2026-03-31T15:46:33.024288","MEAN_MOTION":15.88592069,"ECCENTRICITY":0.0027131,"INCLINATION":82.297,"RA_OF_ASC_NODE":99.7112,"ARG_OF_PERICENTER":44.667,"MEAN_ANOMALY":315.6779,"EPHEMERIS_TYPE":0,"CLASSIFICATION_TYPE":"U","NORAD_CAT_ID":68364,"ELEMENT_SET_NO":999,"REV_AT_EPOCH":126,"BSTAR":0.0002303,"MEAN_MOTION_DOT":0.0006622,"MEAN_MOTION_DDOT":3.7193e-7},{"OBJECT_NAME":"RASSVET-3 6","OBJECT_ID":"2026-061F","EPOCH":"2026-03-31T15:46:21.239328","MEAN_MOTION":15.88687592,"ECCENTRICITY":0.0026941,"INCLINATION":82.2971,"RA_OF_ASC_NODE":99.7112,"ARG_OF_PERICENTER":44.7847,"MEAN_ANOMALY":315.5592,"EPHEMERIS_TYPE":0,"CLASSIFICATION_TYPE":"U","NORAD_CAT_ID":68365,"ELEMENT_SET_NO":999,"REV_AT_EPOCH":126,"BSTAR":0.00026705,"MEAN_MOTION_DOT":0.00077066,"MEAN_MOTION_DDOT":9.066e-7},{"OBJECT_NAME":"RASSVET-3 7","OBJECT_ID":"2026-061G","EPOCH":"2026-03-31T15:46:19.613280","MEAN_MOTION":15.88611878,"ECCENTRICITY":0.0026925,"INCLINATION":82.297,"RA_OF_ASC_NODE":99.7112,"ARG_OF_PERICENTER":44.6743,"MEAN_ANOMALY":315.6691,"EPHEMERIS_TYPE":0,"CLASSIFICATION_TYPE":"U","NORAD_CAT_ID":68366,"ELEMENT_SET_NO":999,"REV_AT_EPOCH":126,"BSTAR":0.00021483,"MEAN_MOTION_DOT":0.0006183,"MEAN_MOTION_DDOT":1.801e-7},{"OBJECT_NAME":"RASSVET-3 8","OBJECT_ID":"2026-061H","EPOCH":"2026-03-31T15:46:24.113856","MEAN_MOTION":15.88599119,"ECCENTRICITY":0.0026929,"INCLINATION":82.297,"RA_OF_ASC_NODE":99.7109,"ARG_OF_PERICENTER":44.614,"MEAN_ANOMALY":315.7292,"EPHEMERIS_TYPE":0,"CLASSIFICATION_TYPE":"U","NORAD_CAT_ID":68367,"ELEMENT_SET_NO":999,"REV_AT_EPOCH":126,"BSTAR":0.00022,"MEAN_MOTION_DOT":0.00063268,"MEAN_MOTION_DDOT":2.4145e-7},{"OBJECT_NAME":"RASSVET-3 9","OBJECT_ID":"2026-061J","EPOCH":"2026-03-31T15:46:03.215424","MEAN_MOTION":15.8883841,"ECCENTRICITY":0.0026602,"INCLINATION":82.2968,"RA_OF_ASC_NODE":99.7106,"ARG_OF_PERICENTER":44.7263,"MEAN_ANOMALY":315.6146,"EPHEMERIS_TYPE":0,"CLASSIFICATION_TYPE":"U","NORAD_CAT_ID":68368,"ELEMENT_SET_NO":999,"REV_AT_EPOCH":126,"BSTAR":0.00040633,"MEAN_MOTION_DOT":0.00117868,"MEAN_MOTION_DDOT":3.668e-6},{"OBJECT_NAME":"RASSVET-3 10","OBJECT_ID":"2026-061K","EPOCH":"2026-03-31T15:46:05.226816","MEAN_MOTION":15.88648903,"ECCENTRICITY":0.0026776,"INCLINATION":82.2971,"RA_OF_ASC_NODE":99.7109,"ARG_OF_PERICENTER":44.5811,"MEAN_ANOMALY":315.7607,"EPHEMERIS_TYPE":0,"CLASSIFICATION_TYPE":"U","NORAD_CAT_ID":68369,"ELEMENT_SET_NO":999,"REV_AT_EPOCH":126,"BSTAR":0.00022598,"MEAN_MOTION_DOT":0.00065118,"MEAN_MOTION_DDOT":3.234e-7},{"OBJECT_NAME":"RASSVET-3 11","OBJECT_ID":"2026-061L","EPOCH":"2026-03-31T15:45:45.048960","MEAN_MOTION":15.88690838,"ECCENTRICITY":0.0026563,"INCLINATION":82.297,"RA_OF_ASC_NODE":99.7104,"ARG_OF_PERICENTER":44.4425,"MEAN_ANOMALY":315.897,"EPHEMERIS_TYPE":0,"CLASSIFICATION_TYPE":"U","NORAD_CAT_ID":68370,"ELEMENT_SET_NO":999,"REV_AT_EPOCH":126,"BSTAR":0.00022715,"MEAN_MOTION_DOT":0.00065557,"MEAN_MOTION_DDOT":3.438e-7},{"OBJECT_NAME":"RASSVET-3 12","OBJECT_ID":"2026-061M","EPOCH":"2026-03-31T15:45:33.283872","MEAN_MOTION":15.88746118,"ECCENTRICITY":0.0026505,"INCLINATION":82.297,"RA_OF_ASC_NODE":99.7103,"ARG_OF_PERICENTER":44.4421,"MEAN_ANOMALY":315.897,"EPHEMERIS_TYPE":0,"CLASSIFICATION_TYPE":"U","NORAD_CAT_ID":68371,"ELEMENT_SET_NO":999,"REV_AT_EPOCH":126,"BSTAR":0.00022899,"MEAN_MOTION_DOT":0.00066259,"MEAN_MOTION_DDOT":3.7632e-7}]
